IRIDIUM 144             
1 43249U 18030A   24303.89582062  .00001137  00000+0  39874-3 0  9991
2 43249  86.4025 179.2265 0002149  81.4552 278.6887 14.34225617344813
IRIDIUM 149             
1 43250U 18030B   24303.90216724  .00001112  00000+0  38999-3 0  9994
2 43250  86.4023 179.1976 0001979  78.2953 281.8464 14.34221198344839
IRIDIUM 157             
1 43251U 18030C   24303.92118684  .00000111  00000+0  32483-4 0  9994
2 43251  86.4027 179.2294 0001810  82.5817 277.5584 14.34223901344816
IRIDIUM 140             
1 43252U 18030D   24303.59137931  .00001014  00000+0  35505-3 0  9994
2 43252  86.4025 179.3809 0002163  84.6351 275.5092 14.34219780344829
IRIDIUM 145             
1 43253U 18030E   24303.71823197  .00000253  00000+0  83317-4 0  9994
2 43253  86.4024 179.3015 0002437  75.1850 284.9615 14.34219631344775
IRIDIUM 146             
1 43254U 18030F   24303.90850971  .00000257  00000+0  84663-4 0  9995
2 43254  86.4025 179.2370 0002196  75.1057 285.0381 14.34217298344815
IRIDIUM 148             
1 43255U 18030G   24303.94656791  .00000026  00000+0  23757-5 0  9996
2 43255  86.4026 179.2548 0001986  77.1180 283.0237 14.34217443344853
IRIDIUM 142             
1 43256U 18030H   24303.91485153  .00000812  00000+0  28280-3 0  9993
2 43256  86.4021 179.1789 0002157  70.0245 290.1183 14.34219321344812
